start=new Date('2021-12-27T00:00:00.000Z').valueOf();
sats=[{"MEAN_ANOMALY":"263.8725","SITE":"AFETR","APOAPSIS":"548.703","INCLINATION":"53.0535","RCS_SIZE":"LARGE","MEAN_MOTION_DDOT":"0.0000000000000","REV_AT_EPOCH":"9390","EPHEMERIS_TYPE":"0","EPOCH":"2021-12-26T20:38:48.666336","ELEMENT_SET_NO":"999","TIME_SYSTEM":"UTC","FILE":"3251846","TLE_LINE1":"1 45536U 20025F   21360.86028549 -.00000081  00000-0  13452-4 0  9995","CLASSIFICATION_TYPE":"U","MEAN_ELEMENT_THEORY":"SGP4","COUNTRY_CODE":"US","OBJECT_ID":"2020-025F","ECCENTRICITY":"0.00021230","DECAY_DATE":null,"ARG_OF_PERICENTER":"96.2506","PERIOD":"95.593","LAUNCH_DATE":"2020-04-22","TLE_LINE2":"2 45536  53.0535 152.2483 0002123  96.2506 263.8725 15.06393742 93901","OBJECT_TYPE":"PAYLOAD","MEAN_MOTION_DOT":"-0.00000081","SEMIMAJOR_AXIS":"6925.368","RA_OF_ASC_NODE":"152.2483","GP_ID":"192522376","NORAD_CAT_ID":"45536","REF_FRAME":"TEME","CENTER_NAME":"EARTH","BSTAR":"0.00001345200000","PERIAPSIS":"545.762","MEAN_MOTION":"15.06393742","OBJECT_NAME":"STARLINK-1352"},{"SITE":"AFETR","APOAPSIS":"518.623","MEAN_ANOMALY":"203.0455","RCS_SIZE":"LARGE","INCLINATION":"53.0001","MEAN_MOTION_DDOT":"0.0000000000000","EPHEMERIS_TYPE":"0","EPOCH":"2021-12-26T20:41:40.864992","ELEMENT_SET_NO":"999","REV_AT_EPOCH":"9429","COUNTRY_CODE":"US","TIME_SYSTEM":"UTC","FILE":"3251846","TLE_LINE1":"1 45537U 20025G   21360.86227853  .00016614  00000-0  86461-3 0  9992","CLASSIFICATION_TYPE":"U","MEAN_ELEMENT_THEORY":"SGP4","ECCENTRICITY":"0.00017030","OBJECT_ID":"2020-025G","DECAY_DATE":null,"ARG_OF_PERICENTER":"157.0614","PERIOD":"94.977","LAUNCH_DATE":"2020-04-22","OBJECT_TYPE":"PAYLOAD","MEAN_MOTION_DOT":"0.00016614","TLE_LINE2":"2 45537  53.0001 123.3909 0001703 157.0614 203.0455 15.16164085 94297","SEMIMAJOR_AXIS":"6895.584","GP_ID":"192523628","RA_OF_ASC_NODE":"123.3909","NORAD_CAT_ID":"45537","REF_FRAME":"TEME","CENTER_NAME":"EARTH","BSTAR":"0.00086461000000","MEAN_MOTION":"15.16164085","OBJECT_NAME":"STARLINK-1353","PERIAPSIS":"516.274"},{"EPHEMERIS_TYPE":"0","EPOCH":"2021-12-26T18:04:53.186304","ELEMENT_SET_NO":"999","REV_AT_EPOCH":"9389","COUNTRY_CODE":"US","TIME_SYSTEM":"UTC","TLE_LINE1":"1 45538U 20025H   21360.75339336 -.00000164  00000-0  79135-5 0  9997","CLASSIFICATION_TYPE":"U","FILE":"3251846","MEAN_ELEMENT_THEORY":"SGP4","SITE":"AFETR","APOAPSIS":"548.643","MEAN_ANOMALY":"262.7417","INCLINATION":"53.0540","RCS_SIZE":"LARGE","MEAN_MOTION_DDOT":"0.0000000000000","PERIOD":"95.593","LAUNCH_DATE":"2020-04-22","OBJECT_ID":"2020-025H","ECCENTRICITY":"0.00020370","DECAY_DATE":null,"ARG_OF_PERICENTER":"97.3804","GP_ID":"192523376","RA_OF_ASC_NODE":"152.7258","NORAD_CAT_ID":"45538","OBJECT_TYPE":"PAYLOAD","MEAN_MOTION_DOT":"-0.00000164","TLE_LINE2":"2 45538  53.0540 152.7258 0002037  97.3804 262.7417 15.06393726 93897","SEMIMAJOR_AXIS":"6925.368","OBJECT_NAME":"STARLINK-1362","MEAN_MOTION":"15.06393726","PERIAPSIS":"545.822","REF_FRAME":"TEME","BSTAR":"0.00000791350000","CENTER_NAME":"EARTH"},{"NORAD_CAT_ID":"45539","RA_OF_ASC_NODE":"38.6932","GP_ID":"192522126","SEMIMAJOR_AXIS":"6717.795","TLE_LINE2":"2 45539  53.0511  38.6932 0003489  14.8413 345.2709 15.76749120 95454","MEAN_MOTION_DOT":"0.00005692","OBJECT_TYPE":"PAYLOAD","PERIAPSIS":"337.317","OBJECT_NAME":"STARLINK-1367","MEAN_MOTION":"15.76749120","BSTAR":"0.00003873100000","CENTER_NAME":"EARTH","REF_FRAME":"TEME","TLE_LINE1":"1 45539U 20025J   21360.57409311  .00005692  00000-0  38731-4 0  9995","CLASSIFICATION_TYPE":"U","FILE":"3251846","MEAN_ELEMENT_THEORY":"SGP4","TIME_SYSTEM":"UTC","COUNTRY_CODE":"US","REV_AT_EPOCH":"9545","ELEMENT_SET_NO":"999","EPOCH":"2021-12-26T13:46:41.644704","EPHEMERIS_TYPE":"0","MEAN_MOTION_DDOT":"0.0000000000000","RCS_SIZE":"LARGE","INCLINATION":"53.0511","MEAN_ANOMALY":"345.2709","APOAPSIS":"342.004","SITE":"AFETR","LAUNCH_DATE":"2020-04-22","PERIOD":"91.327","ARG_OF_PERICENTER":"14.8413","DECAY_DATE":null,"ECCENTRICITY":"0.00034890","OBJECT_ID":"2020-025J"},{"OBJECT_TYPE":"PAYLOAD","MEAN_MOTION_DOT":"-0.00003671","TLE_LINE2":"2 45540  53.0525 152.2313 0002140  96.5514 263.5719 15.06363509 93906","SEMIMAJOR_AXIS":"6925.460","GP_ID":"192522877","RA_OF_ASC_NODE":"152.2313","NORAD_CAT_ID":"45540","REF_FRAME":"TEME","CENTER_NAME":"EARTH","BSTAR":"-0.00022787000000","MEAN_MOTION":"15.06363509","OBJECT_NAME":"STARLINK-1368","PERIAPSIS":"545.843","SITE":"AFETR","APOAPSIS":"548.807","MEAN_ANOMALY":"263.5719","INCLINATION":"53.0525","RCS_SIZE":"LARGE","MEAN_MOTION_DDOT":"0.0000000000000","EPOCH":"2021-12-26T20:44:09.298464","EPHEMERIS_TYPE":"0","ELEMENT_SET_NO":"999","REV_AT_EPOCH":"9390","COUNTRY_CODE":"US","TIME_SYSTEM":"UTC","CLASSIFICATION_TYPE":"U","TLE_LINE1":"1 45540U 20025K   21360.86399651 -.00003671  00000-0 -22787-3 0  9994","FILE":"3251846","MEAN_ELEMENT_THEORY":"SGP4","ECCENTRICITY":"0.00021400","OBJECT_ID":"2020-025K","DECAY_DATE":null,"ARG_OF_PERICENTER":"96.5514","PERIOD":"95.594","LAUNCH_DATE":"2020-04-22"},{"ELEMENT_SET_NO":"999","EPOCH":"2021-12-26T20:49:25.626144","EPHEMERIS_TYPE":"0","REV_AT_EPOCH":"9390","COUNTRY_CODE":"US","TLE_LINE1":"1 45541U 20025L   21360.86765771  .00001908  00000-0  14697-3 0  9995","CLASSIFICATION_TYPE":"U","FILE":"3251846","MEAN_ELEMENT_THEORY":"SGP4","TIME_SYSTEM":"UTC","APOAPSIS":"548.449","SITE":"AFETR","MEAN_ANOMALY":"275.3153","MEAN_MOTION_DDOT":"0.0000000000000","RCS_SIZE":"LARGE","INCLINATION":"53.0531","PERIOD":"95.592","LAUNCH_DATE":"2020-04-22","ECCENTRICITY":"0.00017670","OBJECT_ID":"2020-025L","ARG_OF_PERICENTER":"84.8037","DECAY_DATE":null,"GP_ID":"192523128","RA_OF_ASC_NODE":"152.2115","NORAD_CAT_ID":"45541","MEAN_MOTION_DOT":"0.00001908","OBJECT_TYPE":"PAYLOAD","TLE_LINE2":"2 45541  53.0531 152.2115 0001767  84.8037 275.3153 15.06396012 93906","SEMIMAJOR_AXIS":"6925.361","MEAN_MOTION":"15.06396012","OBJECT_NAME":"STARLINK-1369","PERIAPSIS":"546.002","REF_FRAME":"TEME","BSTAR":"0.00014697000000","CENTER_NAME":"EARTH"},{"RA_OF_ASC_NODE":"152.9603","GP_ID":"192523877","NORAD_CAT_ID":"45542","TLE_LINE2":"2 45542  53.0538 152.9603 0002222 102.4980 257.6257 15.06405828 93885","OBJECT_TYPE":"PAYLOAD","MEAN_MOTION_DOT":"0.00000419","SEMIMAJOR_AXIS":"6925.331","PERIAPSIS":"545.657","OBJECT_NAME":"STARLINK-1371","MEAN_MOTION":"15.06405828","REF_FRAME":"TEME","BSTAR":"0.00004700800000","CENTER_NAME":"EARTH","REV_AT_EPOCH":"9388","EPOCH":"2021-12-26T16:50:33.637344","EPHEMERIS_TYPE":"0","ELEMENT_SET_NO":"999","TIME_SYSTEM":"UTC","TLE_LINE1":"1 45542U 20025M   21360.70177821  .00000419  00000-0  47008-4 0  9991","FILE":"3251846","CLASSIFICATION_TYPE":"U","MEAN_ELEMENT_THEORY":"SGP4","COUNTRY_CODE":"US","MEAN_ANOMALY":"257.6257","SITE":"AFETR","APOAPSIS":"548.735","INCLINATION":"53.0538","RCS_SIZE":"LARGE","MEAN_MOTION_DDOT":"0.0000000000000","PERIOD":"95.592","LAUNCH_DATE":"2020-04-22","ECCENTRICITY":"0.00022220","OBJECT_ID":"2020-025M","DECAY_DATE":null,"ARG_OF_PERICENTER":"102.4980"},{"MEAN_ELEMENT_THEORY":"SGP4","TLE_LINE1":"1 45543U 20025N   21360.73865220  .00000133  00000-0  27852-4 0  9990","FILE":"3251846","CLASSIFICATION_TYPE":"U","TIME_SYSTEM":"UTC","COUNTRY_CODE":"US","REV_AT_EPOCH":"9298","ELEMENT_SET_NO":"999","EPHEMERIS_TYPE":"0","EPOCH":"2021-12-26T17:43:39.550080","MEAN_MOTION_DDOT":"0.0000000000000","INCLINATION":"53.0552","RCS_SIZE":"LARGE","MEAN_ANOMALY":"267.7276","APOAPSIS":"548.957","SITE":"AFETR","LAUNCH_DATE":"2020-04-22","PERIOD":"95.592","ARG_OF_PERICENTER":"92.4001","DECAY_DATE":null,"OBJECT_ID":"2020-025N","ECCENTRICITY":"0.00025140","NORAD_CAT_ID":"45543","RA_OF_ASC_NODE":"152.7842","GP_ID":"192522627","SEMIMAJOR_AXIS":"6925.351","TLE_LINE2":"2 45543  53.0552 152.7842 0002514  92.4001 267.7276 15.06399103 92982","MEAN_MOTION_DOT":"0.00000133","OBJECT_TYPE":"PAYLOAD","PERIAPSIS":"545.475","OBJECT_NAME":"STARLINK-1372","MEAN_MOTION":"15.06399103","BSTAR":"0.00002785200000","CENTER_NAME":"EARTH","REF_FRAME":"TEME"},{"SEMIMAJOR_AXIS":"6925.348","TLE_LINE2":"2 45544  53.0538 152.1213 0001885  95.2168 264.9037 15.06400196 93911","MEAN_MOTION_DOT":"0.00001636","OBJECT_TYPE":"PAYLOAD","NORAD_CAT_ID":"45544","RA_OF_ASC_NODE":"152.1213","GP_ID":"192522377","BSTAR":"0.00012873000000","CENTER_NAME":"EARTH","REF_FRAME":"TEME","PERIAPSIS":"545.908","OBJECT_NAME":"STARLINK-1373","MEAN_MOTION":"15.06400196","MEAN_MOTION_DDOT":"0.0000000000000","RCS_SIZE":"LARGE","INCLINATION":"53.0538","MEAN_ANOMALY":"264.9037","APOAPSIS":"548.518","SITE":"AFETR","TLE_LINE1":"1 45544U 20025P   21360.88976483  .00001636  00000-0  12873-3 0  9996","FILE":"3251846","CLASSIFICATION_TYPE":"U","MEAN_ELEMENT_THEORY":"SGP4","TIME_SYSTEM":"UTC","COUNTRY_CODE":"US","REV_AT_EPOCH":"9391","ELEMENT_SET_NO":"999","EPHEMERIS_TYPE":"0","EPOCH":"2021-12-26T21:21:15.681312","ARG_OF_PERICENTER":"95.2168","DECAY_DATE":null,"OBJECT_ID":"2020-025P","ECCENTRICITY":"0.00018850","LAUNCH_DATE":"2020-04-22","PERIOD":"95.592"},{"ELEMENT_SET_NO":"999","EPOCH":"2021-12-26T20:12:16.348896","EPHEMERIS_TYPE":"0","REV_AT_EPOCH":"9388","COUNTRY_CODE":"US","TLE_LINE1":"1 45545U 20025Q   21360.84185589 -.00000217  00000-0  43493-5 0  9991","CLASSIFICATION_TYPE":"U","FILE":"3251846","MEAN_ELEMENT_THEORY":"SGP4","TIME_SYSTEM":"UTC","APOAPSIS":"548.884","SITE":"AFETR","MEAN_ANOMALY":"267.8362","MEAN_MOTION_DDOT":"0.0000000000000","INCLINATION":"53.0529","RCS_SIZE":"LARGE","PERIOD":"95.592","LAUNCH_DATE":"2020-04-22","OBJECT_ID":"2020-025Q","ECCENTRICITY":"0.00024020","ARG_OF_PERICENTER":"92.2902","DECAY_DATE":null,"GP_ID":"192523629","RA_OF_ASC_NODE":"152.3356","NORAD_CAT_ID":"45545","MEAN_MOTION_DOT":"-0.00000217","OBJECT_TYPE":"PAYLOAD","TLE_LINE2":"2 45545  53.0529 152.3356 0002402  92.2902 267.8362 15.06397595 93888","SEMIMAJOR_AXIS":"6925.356","MEAN_MOTION":"15.06397595","OBJECT_NAME":"STARLINK-1374","PERIAPSIS":"545.557","REF_FRAME":"TEME","BSTAR":"0.00000434930000","CENTER_NAME":"EARTH"}];
